[{"OBJECT_NAME":"STARLINK-37147","OBJECT_ID":"2026-057B","EPOCH":"2026-04-17T21:28:50.193696","MEAN_MOTION":15.75266247,"ECCENTRICITY":0.00020399,"INCLINATION":97.2865,"RA_OF_ASC_NODE":232.244,"ARG_OF_PERICENTER":54.7805,"MEAN_ANOMALY":305.3651,"EPHEMERIS_TYPE":0,"CLASSIFICATION_TYPE":"U","NORAD_CAT_ID":68295,"ELEMENT_SET_NO":999,"REV_AT_EPOCH":445,"BSTAR":0.0010674612,"MEAN_MOTION_DOT":0.00162699,"MEAN_MOTION_DDOT":0},{"OBJECT_NAME":"STARLINK-37142","OBJECT_ID":"2026-057C","EPOCH":"2026-04-17T21:12:34.829280","MEAN_MOTION":15.75437809,"ECCENTRICITY":0.00025715,"INCLINATION":97.286,"RA_OF_ASC_NODE":232.2591,"ARG_OF_PERICENTER":34.7068,"MEAN_ANOMALY":325.4365,"EPHEMERIS_TYPE":0,"CLASSIFICATION_TYPE":"U","NORAD_CAT_ID":68296,"ELEMENT_SET_NO":999,"REV_AT_EPOCH":445,"BSTAR":0.0014327926,"MEAN_MOTION_DOT":0.00221594,"MEAN_MOTION_DDOT":0},{"OBJECT_NAME":"STARLINK-37115","OBJECT_ID":"2026-057D","EPOCH":"2026-04-18T06:00:02.999808","MEAN_MOTION":15.76742599,"ECCENTRICITY":0.00017446,"INCLINATION":97.2855,"RA_OF_ASC_NODE":232.6843,"ARG_OF_PERICENTER":67.9704,"MEAN_ANOMALY":298.8653,"EPHEMERIS_TYPE":0,"CLASSIFICATION_TYPE":"U","NORAD_CAT_ID":68297,"ELEMENT_SET_NO":999,"REV_AT_EPOCH":540,"BSTAR":-0.012535541,"MEAN_MOTION_DOT":-0.01763596,"MEAN_MOTION_DDOT":0},{"OBJECT_NAME":"STARLINK-36355","OBJECT_ID":"2026-057E","EPOCH":"2026-04-17T20:50:46.947552","MEAN_MOTION":15.80821406,"ECCENTRICITY":0.0002988,"INCLINATION":97.286,"RA_OF_ASC_NODE":232.2798,"ARG_OF_PERICENTER":68.6501,"MEAN_ANOMALY":291.5086,"EPHEMERIS_TYPE":0,"CLASSIFICATION_TYPE":"U","NORAD_CAT_ID":68298,"ELEMENT_SET_NO":999,"REV_AT_EPOCH":445,"BSTAR":0.0010611979,"MEAN_MOTION_DOT":0.00208129,"MEAN_MOTION_DDOT":0},{"OBJECT_NAME":"STARLINK-37118","OBJECT_ID":"2026-057F","EPOCH":"2026-04-18T06:00:02.999808","MEAN_MOTION":15.75207664,"ECCENTRICITY":0.00011721,"INCLINATION":97.2854,"RA_OF_ASC_NODE":232.6808,"ARG_OF_PERICENTER":72.3862,"MEAN_ANOMALY":283.5348,"EPHEMERIS_TYPE":0,"CLASSIFICATION_TYPE":"U","NORAD_CAT_ID":68299,"ELEMENT_SET_NO":999,"REV_AT_EPOCH":551,"BSTAR":-0.00014087148,"MEAN_MOTION_DOT":-0.00021105,"MEAN_MOTION_DDOT":0},{"OBJECT_NAME":"STARLINK-36875","OBJECT_ID":"2026-057G","EPOCH":"2026-04-17T22:18:40.653216","MEAN_MOTION":15.80862287,"ECCENTRICITY":0.00013433,"INCLINATION":97.2855,"RA_OF_ASC_NODE":232.3507,"ARG_OF_PERICENTER":69.8944,"MEAN_ANOMALY":290.2469,"EPHEMERIS_TYPE":0,"CLASSIFICATION_TYPE":"U","NORAD_CAT_ID":68300,"ELEMENT_SET_NO":999,"REV_AT_EPOCH":446,"BSTAR":0.00075499984,"MEAN_MOTION_DOT":0.00147253,"MEAN_MOTION_DDOT":0},{"OBJECT_NAME":"STARLINK-37099","OBJECT_ID":"2026-057H","EPOCH":"2026-04-17T14:40:44.698944","MEAN_MOTION":15.80881679,"ECCENTRICITY":0.00011792,"INCLINATION":97.2848,"RA_OF_ASC_NODE":232.0164,"ARG_OF_PERICENTER":80.9022,"MEAN_ANOMALY":279.2379,"EPHEMERIS_TYPE":0,"CLASSIFICATION_TYPE":"U","NORAD_CAT_ID":68301,"ELEMENT_SET_NO":999,"REV_AT_EPOCH":441,"BSTAR":0.0010988306,"MEAN_MOTION_DOT":0.00216284,"MEAN_MOTION_DDOT":0},{"OBJECT_NAME":"STARLINK-37007","OBJECT_ID":"2026-057J","EPOCH":"2026-04-17T20:43:12.299520","MEAN_MOTION":15.80833441,"ECCENTRICITY":0.00024822,"INCLINATION":97.2856,"RA_OF_ASC_NODE":232.2864,"ARG_OF_PERICENTER":68.4006,"MEAN_ANOMALY":291.7527,"EPHEMERIS_TYPE":0,"CLASSIFICATION_TYPE":"U","NORAD_CAT_ID":68302,"ELEMENT_SET_NO":999,"REV_AT_EPOCH":445,"BSTAR":0.0011766562,"MEAN_MOTION_DOT":0.00231525,"MEAN_MOTION_DDOT":0},{"OBJECT_NAME":"STARLINK-36300","OBJECT_ID":"2026-057K","EPOCH":"2026-04-17T19:13:07.779936","MEAN_MOTION":15.80912436,"ECCENTRICITY":0.00020136,"INCLINATION":97.2859,"RA_OF_ASC_NODE":232.2191,"ARG_OF_PERICENTER":45.4658,"MEAN_ANOMALY":314.6775,"EPHEMERIS_TYPE":0,"CLASSIFICATION_TYPE":"U","NORAD_CAT_ID":68303,"ELEMENT_SET_NO":999,"REV_AT_EPOCH":444,"BSTAR":0.0011544672,"MEAN_MOTION_DOT":0.00227872,"MEAN_MOTION_DDOT":0},{"OBJECT_NAME":"STARLINK-36849","OBJECT_ID":"2026-057L","EPOCH":"2026-04-18T06:00:02.999808","MEAN_MOTION":15.75174653,"ECCENTRICITY":0.00014514,"INCLINATION":97.2857,"RA_OF_ASC_NODE":232.6745,"ARG_OF_PERICENTER":85.3708,"MEAN_ANOMALY":258.5616,"EPHEMERIS_TYPE":0,"CLASSIFICATION_TYPE":"U","NORAD_CAT_ID":68304,"ELEMENT_SET_NO":999,"REV_AT_EPOCH":557,"BSTAR":0.00014901591,"MEAN_MOTION_DOT":0.0002214,"MEAN_MOTION_DDOT":0},{"OBJECT_NAME":"STARLINK-36277","OBJECT_ID":"2026-057M","EPOCH":"2026-04-17T23:07:25.612896","MEAN_MOTION":15.7521167,"ECCENTRICITY":0.00015621,"INCLINATION":97.286,"RA_OF_ASC_NODE":232.3017,"ARG_OF_PERICENTER":74.5194,"MEAN_ANOMALY":285.6244,"EPHEMERIS_TYPE":0,"CLASSIFICATION_TYPE":"U","NORAD_CAT_ID":68305,"ELEMENT_SET_NO":999,"REV_AT_EPOCH":446,"BSTAR":0.0014209777,"MEAN_MOTION_DOT":0.00217509,"MEAN_MOTION_DDOT":0},{"OBJECT_NAME":"STARLINK-36307","OBJECT_ID":"2026-057N","EPOCH":"2026-04-17T20:41:02.309856","MEAN_MOTION":15.80850643,"ECCENTRICITY":0.00020964,"INCLINATION":97.284,"RA_OF_ASC_NODE":232.2881,"ARG_OF_PERICENTER":64.0256,"MEAN_ANOMALY":296.1228,"EPHEMERIS_TYPE":0,"CLASSIFICATION_TYPE":"U","NORAD_CAT_ID":68306,"ELEMENT_SET_NO":999,"REV_AT_EPOCH":445,"BSTAR":0.0012120661,"MEAN_MOTION_DOT":0.00238879,"MEAN_MOTION_DDOT":0},{"OBJECT_NAME":"STARLINK-36264","OBJECT_ID":"2026-057P","EPOCH":"2026-04-17T21:18:09.561888","MEAN_MOTION":15.75208266,"ECCENTRICITY":0.00015347,"INCLINATION":97.2875,"RA_OF_ASC_NODE":232.2515,"ARG_OF_PERICENTER":79.8647,"MEAN_ANOMALY":280.2791,"EPHEMERIS_TYPE":0,"CLASSIFICATION_TYPE":"U","NORAD_CAT_ID":68307,"ELEMENT_SET_NO":999,"REV_AT_EPOCH":445,"BSTAR":0.00065921531,"MEAN_MOTION_DOT":0.00099428,"MEAN_MOTION_DDOT":0},{"OBJECT_NAME":"STARLINK-37138","OBJECT_ID":"2026-057Q","EPOCH":"2026-04-17T21:15:37.371744","MEAN_MOTION":15.75278832,"ECCENTRICITY":0.00016386,"INCLINATION":97.2864,"RA_OF_ASC_NODE":232.2524,"ARG_OF_PERICENTER":56.8088,"MEAN_ANOMALY":303.3334,"EPHEMERIS_TYPE":0,"CLASSIFICATION_TYPE":"U","NORAD_CAT_ID":68308,"ELEMENT_SET_NO":999,"REV_AT_EPOCH":445,"BSTAR":0.0012899546,"MEAN_MOTION_DOT":0.0019755,"MEAN_MOTION_DDOT":0},{"OBJECT_NAME":"STARLINK-37149","OBJECT_ID":"2026-057R","EPOCH":"2026-04-17T21:20:41.964576","MEAN_MOTION":15.75206635,"ECCENTRICITY":0.00012886,"INCLINATION":97.2866,"RA_OF_ASC_NODE":232.2497,"ARG_OF_PERICENTER":78.8491,"MEAN_ANOMALY":281.2919,"EPHEMERIS_TYPE":0,"CLASSIFICATION_TYPE":"U","NORAD_CAT_ID":68309,"ELEMENT_SET_NO":999,"REV_AT_EPOCH":445,"BSTAR":0.00053049976,"MEAN_MOTION_DOT":0.00079797,"MEAN_MOTION_DDOT":0},{"OBJECT_NAME":"STARLINK-37148","OBJECT_ID":"2026-057S","EPOCH":"2026-04-17T21:07:29.248032","MEAN_MOTION":15.75189985,"ECCENTRICITY":8.979e-5,"INCLINATION":97.2864,"RA_OF_ASC_NODE":232.2615,"ARG_OF_PERICENTER":100.2581,"MEAN_ANOMALY":259.8785,"EPHEMERIS_TYPE":0,"CLASSIFICATION_TYPE":"U","NORAD_CAT_ID":68310,"ELEMENT_SET_NO":999,"REV_AT_EPOCH":445,"BSTAR":0.0019289199,"MEAN_MOTION_DOT":0.00297853,"MEAN_MOTION_DDOT":0}]
